[{"OBJECT_NAME":"STARLINK-2273","OBJECT_ID":"2021-024S","EPOCH":"2026-03-10T00:00:02.999808","MEAN_MOTION":15.21044249,"ECCENTRICITY":7.23e-5,"INCLINATION":53.1152,"RA_OF_ASC_NODE":294.6507,"ARG_OF_PERICENTER":119.4489,"MEAN_ANOMALY":235.3564,"EPHEMERIS_TYPE":0,"CLASSIFICATION_TYPE":"U","NORAD_CAT_ID":47993,"ELEMENT_SET_NO":999,"REV_AT_EPOCH":569,"BSTAR":0.0044234454,"MEAN_MOTION_DOT":0.0010051,"MEAN_MOTION_DDOT":0},{"OBJECT_NAME":"OBJECT C","OBJECT_ID":"2025-055C","EPOCH":"2026-03-09T23:32:37.740768","MEAN_MOTION":15.18796405,"ECCENTRICITY":0.00122942,"INCLINATION":97.6357,"RA_OF_ASC_NODE":209.5356,"ARG_OF_PERICENTER":140.8519,"MEAN_ANOMALY":219.3606,"EPHEMERIS_TYPE":0,"CLASSIFICATION_TYPE":"U","NORAD_CAT_ID":63293,"ELEMENT_SET_NO":999,"REV_AT_EPOCH":5407,"BSTAR":0.00071493632,"MEAN_MOTION_DOT":0.00014849,"MEAN_MOTION_DDOT":0}]
